{
    "bodies": [
        {
            "name": "TNO-571",
            "mass": 0,
            "semi_major_axis": 467.22222222222223,
            "eccentricity": 0.8906349206349207,
            "inclination": 0.3954694455907786,
            "longitude_of_ascending_node": 0.24005415498364666,
            "argument_of_perihelion": 0.453577186821054,
            "mean_anomaly": 3.8978427382914953
        },
        {
            "name": "TNO-572",
            "mass": 0,
            "semi_major_axis": 467.77777777777777,
            "eccentricity": 0.8907936507936508,
            "inclination": 0.39616203656379223,
            "longitude_of_ascending_node": 4.940905555008354,
            "argument_of_perihelion": 5.29301137590043,
            "mean_anomaly": 3.446016348930856
        },
        {
            "name": "TNO-573",
            "mass": 0,
            "semi_major_axis": 468.33333333333337,
            "eccentricity": 0.8909523809523809,
            "inclination": 0.39685462753680584,
            "longitude_of_ascending_node": 0.2076052315644398,
            "argument_of_perihelion": 4.788770864864949,
            "mean_anomaly": 2.542194312465072
        },
        {
            "name": "TNO-574",
            "mass": 0,
            "semi_major_axis": 468.8888888888889,
            "eccentricity": 0.8911111111111112,
            "inclination": 0.3975472185098195,
            "longitude_of_ascending_node": 0.24708191022451087,
            "argument_of_perihelion": 1.8151323428898527,
            "mean_anomaly": 5.148677173457471
        },
        {
            "name": "TNO-575",
            "mass": 0,
            "semi_major_axis": 469.44444444444446,
            "eccentricity": 0.8912698412698413,
            "inclination": 0.3982398094828331,
            "longitude_of_ascending_node": 0.9516634314379123,
            "argument_of_perihelion": 2.158316456262229,
            "mean_anomaly": 1.1625729167239287
        },
        {
            "name": "TNO-576",
            "mass": 0,
            "semi_major_axis": 470.0,
            "eccentricity": 0.8914285714285715,
            "inclination": 0.3989324004558467,
            "longitude_of_ascending_node": 4.33836774530023,
            "argument_of_perihelion": 1.8753894475070747,
            "mean_anomaly": 6.212148523184173
        },
        {
            "name": "TNO-577",
            "mass": 0,
            "semi_major_axis": 470.55555555555554,
            "eccentricity": 0.8915873015873016,
            "inclination": 0.3996249914288603,
            "longitude_of_ascending_node": 4.647038069206305,
            "argument_of_perihelion": 4.241179410283667,
            "mean_anomaly": 0.13475075316810356
        },
        {
            "name": "TNO-578",
            "mass": 0,
            "semi_major_axis": 471.11111111111114,
            "eccentricity": 0.8917460317460317,
            "inclination": 0.400317582401874,
            "longitude_of_ascending_node": 2.5407585244947426,
            "argument_of_perihelion": 4.539008456608191,
            "mean_anomaly": 5.776658332760293
        },
        {
            "name": "TNO-579",
            "mass": 0,
            "semi_major_axis": 471.6666666666667,
            "eccentricity": 0.891904761904762,
            "inclination": 0.4010101733748876,
            "longitude_of_ascending_node": 0.355405498559934,
            "argument_of_perihelion": 2.2956878416476227,
            "mean_anomaly": 2.4737129022448845
        },
        {
            "name": "TNO-580",
            "mass": 0,
            "semi_major_axis": 472.22222222222223,
            "eccentricity": 0.8920634920634921,
            "inclination": 0.4017027643479012,
            "longitude_of_ascending_node": 5.26947620851648,
            "argument_of_perihelion": 4.335104771784884,
            "mean_anomaly": 4.779936796537893
        },
        {
            "name": "TNO-581",
            "mass": 0,
            "semi_major_axis": 472.77777777777777,
            "eccentricity": 0.8922222222222222,
            "inclination": 0.40239535532091486,
            "longitude_of_ascending_node": 4.165430303279099,
            "argument_of_perihelion": 5.490807744843758,
            "mean_anomaly": 3.196990288238236
        },
        {
            "name": "TNO-582",
            "mass": 0,
            "semi_major_axis": 473.33333333333337,
            "eccentricity": 0.8923809523809524,
            "inclination": 0.40308794629392847,
            "longitude_of_ascending_node": 3.9091410142373957,
            "argument_of_perihelion": 0.0663707499348783,
            "mean_anomaly": 3.9290425171939822
        },
        {
            "name": "TNO-583",
            "mass": 0,
            "semi_major_axis": 473.8888888888889,
            "eccentricity": 0.8925396825396825,
            "inclination": 0.4037805372669421,
            "longitude_of_ascending_node": 0.4257505803214783,
            "argument_of_perihelion": 0.8212243076530346,
            "mean_anomaly": 0.7418736490414318
        },
        {
            "name": "TNO-584",
            "mass": 0,
            "semi_major_axis": 474.44444444444446,
            "eccentricity": 0.8926984126984128,
            "inclination": 0.4044731282399557,
            "longitude_of_ascending_node": 2.1991002601447263,
            "argument_of_perihelion": 5.3163951341024624,
            "mean_anomaly": 0.9903229946232978
        },
        {
            "name": "TNO-585",
            "mass": 0,
            "semi_major_axis": 475.0,
            "eccentricity": 0.8928571428571429,
            "inclination": 0.40516571921296934,
            "longitude_of_ascending_node": 2.902420563053619,
            "argument_of_perihelion": 3.0590743701978207,
            "mean_anomaly": 3.328438836311958
        },
        {
            "name": "TNO-586",
            "mass": 0,
            "semi_major_axis": 475.55555555555554,
            "eccentricity": 0.893015873015873,
            "inclination": 0.40585831018598295,
            "longitude_of_ascending_node": 1.699100886169283,
            "argument_of_perihelion": 0.6264733084486452,
            "mean_anomaly": 1.713003133718141
        },
        {
            "name": "TNO-587",
            "mass": 0,
            "semi_major_axis": 476.11111111111114,
            "eccentricity": 0.8931746031746032,
            "inclination": 0.40655090115899656,
            "longitude_of_ascending_node": 2.821139316761773,
            "argument_of_perihelion": 3.7702122785899714,
            "mean_anomaly": 2.8258166642326223
        },
        {
            "name": "TNO-588",
            "mass": 0,
            "semi_major_axis": 476.6666666666667,
            "eccentricity": 0.8933333333333333,
            "inclination": 0.4072434921320102,
            "longitude_of_ascending_node": 2.3928472596523807,
            "argument_of_perihelion": 4.875183656887054,
            "mean_anomaly": 0.750917419860027
        },
        {
            "name": "TNO-589",
            "mass": 0,
            "semi_major_axis": 477.22222222222223,
            "eccentricity": 0.8934920634920636,
            "inclination": 0.40793608310502383,
            "longitude_of_ascending_node": 5.2553531463909415,
            "argument_of_perihelion": 2.2016581540168247,
            "mean_anomaly": 4.239683536597356
        },
        {
            "name": "TNO-590",
            "mass": 0,
            "semi_major_axis": 477.77777777777777,
            "eccentricity": 0.8936507936507937,
            "inclination": 0.40862867407803743,
            "longitude_of_ascending_node": 2.835442633440306,
            "argument_of_perihelion": 3.8890126624685593,
            "mean_anomaly": 5.300805217641609
        },
        {
            "name": "TNO-591",
            "mass": 0,
            "semi_major_axis": 478.33333333333337,
            "eccentricity": 0.8938095238095238,
            "inclination": 0.40932126505105104,
            "longitude_of_ascending_node": 1.1673475770766406,
            "argument_of_perihelion": 3.59487128742044,
            "mean_anomaly": 3.698205918196324
        },
        {
            "name": "TNO-592",
            "mass": 0,
            "semi_major_axis": 478.8888888888889,
            "eccentricity": 0.893968253968254,
            "inclination": 0.4100138560240647,
            "longitude_of_ascending_node": 2.244776919571746,
            "argument_of_perihelion": 0.7246326414643616,
            "mean_anomaly": 0.6340395039297729
        },
        {
            "name": "TNO-593",
            "mass": 0,
            "semi_major_axis": 479.44444444444446,
            "eccentricity": 0.8941269841269841,
            "inclination": 0.4107064469970783,
            "longitude_of_ascending_node": 3.3967482811632275,
            "argument_of_perihelion": 2.2287895158522044,
            "mean_anomaly": 1.9861234026812158
        },
        {
            "name": "TNO-594",
            "mass": 0,
            "semi_major_axis": 480.0,
            "eccentricity": 0.8942857142857144,
            "inclination": 0.4113990379700919,
            "longitude_of_ascending_node": 6.275697939405684,
            "argument_of_perihelion": 3.9832497570874787,
            "mean_anomaly": 2.106418517473889
        },
        {
            "name": "TNO-595",
            "mass": 0,
            "semi_major_axis": 480.55555555555554,
            "eccentricity": 0.8944444444444445,
            "inclination": 0.4120916289431056,
            "longitude_of_ascending_node": 1.793488458590341,
            "argument_of_perihelion": 1.4152254236486541,
            "mean_anomaly": 1.3680448993410257
        }
    ]
}